start=new Date('2022-10-15T00:00:00.000Z').valueOf();
sats=[{"PERIAPSIS":"538.344","REF_FRAME":"TEME","MEAN_ELEMENT_THEORY":"SGP4","TLE_LINE1":"1 52283U 22041Y   22287.33153657  .00001703  00000-0  12507-3 0  9992","LAUNCH_DATE":"2022-04-21","RCS_SIZE":"LARGE","TIME_SYSTEM":"UTC","CENTER_NAME":"EARTH","BSTAR":"0.00012507000000","ECCENTRICITY":"0.00020110","SITE":"AFETR","OBJECT_TYPE":"PAYLOAD","APOAPSIS":"541.126","GP_ID":"215102995","RA_OF_ASC_NODE":"286.2928","CLASSIFICATION_TYPE":"U","MEAN_ANOMALY":"318.5822","OBJECT_ID":"2022-041Y","SEMIMAJOR_AXIS":"6917.870","MEAN_MOTION_DDOT":"0.0000000000000","ELEMENT_SET_NO":"999","DECAY_DATE":null,"PERIOD":"95.437","REV_AT_EPOCH":"2681","OBJECT_NAME":"STARLINK-3789","TLE_LINE2":"2 52283  53.2173 286.2928 0002011  41.5323 318.5822 15.08843400 26811","COUNTRY_CODE":"US","EPOCH":"2022-10-14T07:57:24.759648","EPHEMERIS_TYPE":"0","INCLINATION":"53.2173","ARG_OF_PERICENTER":"41.5323","FILE":"3611991","MEAN_MOTION_DOT":"0.00001703","NORAD_CAT_ID":"52283","MEAN_MOTION":"15.08843400"},{"ELEMENT_SET_NO":"999","MEAN_MOTION_DDOT":"0.0000000000000","SEMIMAJOR_AXIS":"6917.870","PERIOD":"95.437","DECAY_DATE":null,"CLASSIFICATION_TYPE":"U","MEAN_ANOMALY":"315.9068","OBJECT_ID":"2022-041Z","MEAN_MOTION_DOT":"0.00000911","FILE":"3612869","ARG_OF_PERICENTER":"44.2097","INCLINATION":"53.2168","MEAN_MOTION":"15.08843548","NORAD_CAT_ID":"52284","TLE_LINE2":"2 52284  53.2168 274.5822 0002169  44.2097 315.9068 15.08843548 27009","OBJECT_NAME":"STARLINK-3561","REV_AT_EPOCH":"2700","EPOCH":"2022-10-14T16:59:14.636256","EPHEMERIS_TYPE":"0","COUNTRY_CODE":"US","LAUNCH_DATE":"2022-04-21","TLE_LINE1":"1 52284U 22041Z   22287.70780829  .00000911  00000-0  75338-4 0  9993","MEAN_ELEMENT_THEORY":"SGP4","REF_FRAME":"TEME","PERIAPSIS":"538.234","ECCENTRICITY":"0.00021690","GP_ID":"215144436","RA_OF_ASC_NODE":"274.5822","APOAPSIS":"541.235","OBJECT_TYPE":"PAYLOAD","SITE":"AFETR","CENTER_NAME":"EARTH","TIME_SYSTEM":"UTC","RCS_SIZE":"LARGE","BSTAR":"0.00007533800000"},{"CLASSIFICATION_TYPE":"U","MEAN_ANOMALY":"311.6137","OBJECT_ID":"2022-041AA","SEMIMAJOR_AXIS":"6917.868","ELEMENT_SET_NO":"999","MEAN_MOTION_DDOT":"0.0000000000000","DECAY_DATE":null,"PERIOD":"95.437","REV_AT_EPOCH":"2681","OBJECT_NAME":"STARLINK-3775","TLE_LINE2":"2 52285  53.2184 286.3113 0001888  48.5017 311.6137 15.08844107 26818","COUNTRY_CODE":"US","EPHEMERIS_TYPE":"0","EPOCH":"2022-10-14T07:52:06.494016","INCLINATION":"53.2184","ARG_OF_PERICENTER":"48.5017","FILE":"3611991","MEAN_MOTION_DOT":"0.00001884","NORAD_CAT_ID":"52285","MEAN_MOTION":"15.08844107","PERIAPSIS":"538.427","REF_FRAME":"TEME","MEAN_ELEMENT_THEORY":"SGP4","TLE_LINE1":"1 52285U 22041AA  22287.32785294  .00001884  00000-0  13641-3 0  9991","LAUNCH_DATE":"2022-04-21","RCS_SIZE":"LARGE","TIME_SYSTEM":"UTC","CENTER_NAME":"EARTH","BSTAR":"0.00013641000000","ECCENTRICITY":"0.00018880","SITE":"AFETR","OBJECT_TYPE":"PAYLOAD","APOAPSIS":"541.039","RA_OF_ASC_NODE":"286.3113","GP_ID":"215101994"},{"BSTAR":"0.00000825950000","CENTER_NAME":"EARTH","TIME_SYSTEM":"UTC","RCS_SIZE":"LARGE","RA_OF_ASC_NODE":"274.6130","GP_ID":"215145438","APOAPSIS":"541.050","OBJECT_TYPE":"PAYLOAD","SITE":"AFETR","ECCENTRICITY":"0.00018730","REF_FRAME":"TEME","PERIAPSIS":"538.458","LAUNCH_DATE":"2022-04-21","TLE_LINE1":"1 52286U 22041AB  22287.70045820 -.00000157  00000-0  82595-5 0  9997","MEAN_ELEMENT_THEORY":"SGP4","EPOCH":"2022-10-14T16:48:39.588480","EPHEMERIS_TYPE":"0","COUNTRY_CODE":"US","TLE_LINE2":"2 52286  53.2162 274.6130 0001873  44.6378 315.4764 15.08837182 27000","OBJECT_NAME":"STARLINK-3802","REV_AT_EPOCH":"2700","MEAN_MOTION":"15.08837182","NORAD_CAT_ID":"52286","MEAN_MOTION_DOT":"-0.00000157","FILE":"3612869","INCLINATION":"53.2162","ARG_OF_PERICENTER":"44.6378","OBJECT_ID":"2022-041AB","MEAN_ANOMALY":"315.4764","CLASSIFICATION_TYPE":"U","PERIOD":"95.438","DECAY_DATE":null,"ELEMENT_SET_NO":"999","MEAN_MOTION_DDOT":"0.0000000000000","SEMIMAJOR_AXIS":"6917.889"},{"OBJECT_ID":"2022-041AC","MEAN_ANOMALY":"318.9409","CLASSIFICATION_TYPE":"U","DECAY_DATE":null,"PERIOD":"95.438","ELEMENT_SET_NO":"999","MEAN_MOTION_DDOT":"0.0000000000000","SEMIMAJOR_AXIS":"6917.888","COUNTRY_CODE":"US","EPHEMERIS_TYPE":"0","EPOCH":"2022-10-14T17:13:48.915264","TLE_LINE2":"2 52287  53.2170 284.5587 0001676  41.1710 318.9409 15.08837673 26872","REV_AT_EPOCH":"2687","OBJECT_NAME":"STARLINK-3822","MEAN_MOTION":"15.08837673","NORAD_CAT_ID":"52287","MEAN_MOTION_DOT":"0.00001245","INCLINATION":"53.2170","ARG_OF_PERICENTER":"41.1710","FILE":"3612869","REF_FRAME":"TEME","PERIAPSIS":"538.593","TLE_LINE1":"1 52287U 22041AC  22287.71792726  .00001245  00000-0  96281-4 0  9997","LAUNCH_DATE":"2022-04-21","MEAN_ELEMENT_THEORY":"SGP4","BSTAR":"0.00009628100000","CENTER_NAME":"EARTH","RCS_SIZE":"LARGE","TIME_SYSTEM":"UTC","APOAPSIS":"540.912","GP_ID":"215145188","RA_OF_ASC_NODE":"284.5587","SITE":"AFETR","OBJECT_TYPE":"PAYLOAD","ECCENTRICITY":"0.00016760"},{"PERIOD":"95.438","DECAY_DATE":null,"MEAN_MOTION_DDOT":"0.0000000000000","ELEMENT_SET_NO":"999","SEMIMAJOR_AXIS":"6917.886","OBJECT_ID":"2022-041AD","MEAN_ANOMALY":"318.1785","CLASSIFICATION_TYPE":"U","MEAN_MOTION":"15.08838242","NORAD_CAT_ID":"52288","MEAN_MOTION_DOT":"-0.00000010","FILE":"3612869","INCLINATION":"53.2172","ARG_OF_PERICENTER":"41.9367","EPOCH":"2022-10-14T16:43:21.285696","EPHEMERIS_TYPE":"0","COUNTRY_CODE":"US","TLE_LINE2":"2 52288  53.2172 274.6413 0002090  41.9367 318.1785 15.08838242 27008","REV_AT_EPOCH":"2700","OBJECT_NAME":"STARLINK-3776","LAUNCH_DATE":"2022-04-21","TLE_LINE1":"1 52288U 22041AD  22287.69677414 -.00000010  00000-0  17470-4 0  9994","MEAN_ELEMENT_THEORY":"SGP4","REF_FRAME":"TEME","PERIAPSIS":"538.305","GP_ID":"215143936","RA_OF_ASC_NODE":"274.6413","APOAPSIS":"541.197","OBJECT_TYPE":"PAYLOAD","SITE":"AFETR","ECCENTRICITY":"0.00020900","BSTAR":"0.00001747000000","CENTER_NAME":"EARTH","TIME_SYSTEM":"UTC","RCS_SIZE":"LARGE"},{"SEMIMAJOR_AXIS":"6917.861","ELEMENT_SET_NO":"999","MEAN_MOTION_DDOT":"0.0000000000000","PERIOD":"95.437","DECAY_DATE":null,"CLASSIFICATION_TYPE":"U","OBJECT_ID":"2022-041AE","MEAN_ANOMALY":"300.1625","FILE":"3611991","ARG_OF_PERICENTER":"59.9533","INCLINATION":"53.2165","MEAN_MOTION_DOT":"0.00004248","NORAD_CAT_ID":"52289","MEAN_MOTION":"15.08846190","REV_AT_EPOCH":"2696","OBJECT_NAME":"STARLINK-3751","TLE_LINE2":"2 52289  53.2165 275.7609 0001668  59.9533 300.1625 15.08846190 26963","EPOCH":"2022-10-14T10:43:00.631776","EPHEMERIS_TYPE":"0","COUNTRY_CODE":"US","MEAN_ELEMENT_THEORY":"SGP4","LAUNCH_DATE":"2022-04-21","TLE_LINE1":"1 52289U 22041AE  22287.44653509  .00004248  00000-0  28478-3 0  9992","PERIAPSIS":"538.573","REF_FRAME":"TEME","ECCENTRICITY":"0.00016680","OBJECT_TYPE":"PAYLOAD","SITE":"AFETR","RA_OF_ASC_NODE":"275.7609","GP_ID":"215102495","APOAPSIS":"540.880","TIME_SYSTEM":"UTC","RCS_SIZE":"LARGE","CENTER_NAME":"EARTH","BSTAR":"0.00028478000000"},{"REF_FRAME":"TEME","PERIAPSIS":"538.414","TLE_LINE1":"1 52290U 22041AF  22287.68669025  .00000793  00000-0  67938-4 0  9996","LAUNCH_DATE":"2022-04-21","MEAN_ELEMENT_THEORY":"SGP4","CENTER_NAME":"EARTH","RCS_SIZE":"LARGE","TIME_SYSTEM":"UTC","BSTAR":"0.00006793800000","ECCENTRICITY":"0.00019120","APOAPSIS":"541.059","RA_OF_ASC_NODE":"274.6858","GP_ID":"215144938","SITE":"AFETR","OBJECT_TYPE":"PAYLOAD","CLASSIFICATION_TYPE":"U","OBJECT_ID":"2022-041AF","MEAN_ANOMALY":"315.0671","MEAN_MOTION_DDOT":"0.0000000000000","ELEMENT_SET_NO":"999","SEMIMAJOR_AXIS":"6917.872","DECAY_DATE":null,"PERIOD":"95.437","TLE_LINE2":"2 52290  53.2184 274.6858 0001912  45.0476 315.0671 15.08842885 27003","REV_AT_EPOCH":"2700","OBJECT_NAME":"STARLINK-3772","COUNTRY_CODE":"US","EPOCH":"2022-10-14T16:28:50.037600","EPHEMERIS_TYPE":"0","MEAN_MOTION_DOT":"0.00000793","ARG_OF_PERICENTER":"45.0476","INCLINATION":"53.2184","FILE":"3612869","MEAN_MOTION":"15.08842885","NORAD_CAT_ID":"52290"},{"BSTAR":"0.00019536000000","TIME_SYSTEM":"UTC","RCS_SIZE":"LARGE","CENTER_NAME":"EARTH","OBJECT_TYPE":"PAYLOAD","SITE":"AFETR","GP_ID":"215145689","RA_OF_ASC_NODE":"274.6030","APOAPSIS":"541.606","ECCENTRICITY":"0.00025270","PERIAPSIS":"538.110","REF_FRAME":"TEME","MEAN_ELEMENT_THEORY":"SGP4","LAUNCH_DATE":"2022-04-21","TLE_LINE1":"1 52291U 22041AG  22287.70416933  .00002819  00000-0  19536-3 0  9999","EPHEMERIS_TYPE":"0","EPOCH":"2022-10-14T16:54:00.230112","COUNTRY_CODE":"US","OBJECT_NAME":"STARLINK-3773","REV_AT_EPOCH":"2700","TLE_LINE2":"2 52291  53.2181 274.6030 0002527  34.9876 325.1282 15.08803177 27008","NORAD_CAT_ID":"52291","MEAN_MOTION":"15.08803177","FILE":"3612869","ARG_OF_PERICENTER":"34.9876","INCLINATION":"53.2181","MEAN_MOTION_DOT":"0.00002819","OBJECT_ID":"2022-041AG","MEAN_ANOMALY":"325.1282","CLASSIFICATION_TYPE":"U","PERIOD":"95.440","DECAY_DATE":null,"SEMIMAJOR_AXIS":"6917.993","ELEMENT_SET_NO":"999","MEAN_MOTION_DDOT":"0.0000000000000"},{"CENTER_NAME":"EARTH","TIME_SYSTEM":"UTC","RCS_SIZE":"LARGE","BSTAR":"0.00002290000000","ECCENTRICITY":"0.00015980","RA_OF_ASC_NODE":"274.1062","GP_ID":"215144437","APOAPSIS":"540.875","OBJECT_TYPE":"PAYLOAD","SITE":"AFETR","REF_FRAME":"TEME","PERIAPSIS":"538.664","LAUNCH_DATE":"2022-04-21","TLE_LINE1":"1 52292U 22041AH  22287.81455550  .00000076  00000-0  22900-4 0  9993","MEAN_ELEMENT_THEORY":"SGP4","TLE_LINE2":"2 52292  53.2176 274.1062 0001598  57.3895 302.7251 15.08831976 27027","OBJECT_NAME":"STARLINK-3753","REV_AT_EPOCH":"2702","EPOCH":"2022-10-14T19:32:57.595200","EPHEMERIS_TYPE":"0","COUNTRY_CODE":"US","MEAN_MOTION_DOT":"0.00000076","FILE":"3612869","ARG_OF_PERICENTER":"57.3895","INCLINATION":"53.2176","MEAN_MOTION":"15.08831976","NORAD_CAT_ID":"52292","CLASSIFICATION_TYPE":"U","OBJECT_ID":"2022-041AH","MEAN_ANOMALY":"302.7251","MEAN_MOTION_DDOT":"0.0000000000000","ELEMENT_SET_NO":"999","SEMIMAJOR_AXIS":"6917.905","PERIOD":"95.438","DECAY_DATE":null}];
